[{
    "OBJECT_NAME": "INTELSAT 4-F8",
    "OBJECT_ID": "1974-093A",
    "EPOCH": "2024-09-25T13:17:51.705024",
    "MEAN_MOTION": 0.99780683,
    "ECCENTRICITY": 0.0005933,
    "INCLINATION": 9.3133,
    "RA_OF_ASC_NODE": 309.2311,
    "ARG_OF_PERICENTER": 197.2447,
    "MEAN_ANOMALY": 313.1608,
    "EPHEMERIS_TYPE": 0,
    "CLASSIFICATION_TYPE": "U",
    "NORAD_CAT_ID": 7544,
    "ELEMENT_SET_NO": 999,
    "REV_AT_EPOCH": 11892,
    "BSTAR": 0,
    "MEAN_MOTION_DOT": -4.6e-7,
    "MEAN_MOTION_DDOT": 0
},{
    "OBJECT_NAME": "ATLAS CENTAUR R/B",
    "OBJECT_ID": "1974-093B",
    "EPOCH": "2024-09-24T08:01:44.973120",
    "MEAN_MOTION": 2.21211648,
    "ECCENTRICITY": 0.7185518,
    "INCLINATION": 26.1223,
    "RA_OF_ASC_NODE": 266.1787,
    "ARG_OF_PERICENTER": 322.4805,
    "MEAN_ANOMALY": 4.4018,
    "EPHEMERIS_TYPE": 0,
    "CLASSIFICATION_TYPE": "U",
    "NORAD_CAT_ID": 7545,
    "ELEMENT_SET_NO": 999,
    "REV_AT_EPOCH": 27293,
    "BSTAR": 0.0038935,
    "MEAN_MOTION_DOT": 1.56e-6,
    "MEAN_MOTION_DDOT": 0
},{
    "OBJECT_NAME": "SKYNET 2B",
    "OBJECT_ID": "1974-094A",
    "EPOCH": "2024-09-25T04:10:41.543616",
    "MEAN_MOTION": 1.00229622,
    "ECCENTRICITY": 0.0004451,
    "INCLINATION": 5.1655,
    "RA_OF_ASC_NODE": 286.7968,
    "ARG_OF_PERICENTER": 213.7366,
    "MEAN_ANOMALY": 298.4244,
    "EPHEMERIS_TYPE": 0,
    "CLASSIFICATION_TYPE": "U",
    "NORAD_CAT_ID": 7547,
    "ELEMENT_SET_NO": 999,
    "REV_AT_EPOCH": 11842,
    "BSTAR": 0,
    "MEAN_MOTION_DOT": 5.3e-7,
    "MEAN_MOTION_DDOT": 0
},{
    "OBJECT_NAME": "SYMPHONIE 1",
    "OBJECT_ID": "1974-101A",
    "EPOCH": "2024-09-25T12:20:50.595072",
    "MEAN_MOTION": 0.99947675,
    "ECCENTRICITY": 0.000295,
    "INCLINATION": 6.1916,
    "RA_OF_ASC_NODE": 284.9026,
    "ARG_OF_PERICENTER": 272.8917,
    "MEAN_ANOMALY": 277.4484,
    "EPHEMERIS_TYPE": 0,
    "CLASSIFICATION_TYPE": "U",
    "NORAD_CAT_ID": 7578,
    "ELEMENT_SET_NO": 999,
    "REV_AT_EPOCH": 11090,
    "BSTAR": 0,
    "MEAN_MOTION_DOT": -2.36e-6,
    "MEAN_MOTION_DDOT": 0
},{
    "OBJECT_NAME": "COSMOS 706",
    "OBJECT_ID": "1975-007A",
    "EPOCH": "2024-09-25T02:00:46.546848",
    "MEAN_MOTION": 2.00536258,
    "ECCENTRICITY": 0.6755121,
    "INCLINATION": 63.9606,
    "RA_OF_ASC_NODE": 219.5388,
    "ARG_OF_PERICENTER": 3.3963,
    "MEAN_ANOMALY": 359.36,
    "EPHEMERIS_TYPE": 0,
    "CLASSIFICATION_TYPE": "U",
    "NORAD_CAT_ID": 7625,
    "ELEMENT_SET_NO": 999,
    "REV_AT_EPOCH": 22379,
    "BSTAR": 0,
    "MEAN_MOTION_DOT": 4.03e-6,
    "MEAN_MOTION_DDOT": 0
},{
    "OBJECT_NAME": "SMS 2",
    "OBJECT_ID": "1975-011A",
    "EPOCH": "2024-09-25T11:07:59.558592",
    "MEAN_MOTION": 0.99516324,
    "ECCENTRICITY": 0.0014792,
    "INCLINATION": 7.0599,
    "RA_OF_ASC_NODE": 290.1438,
    "ARG_OF_PERICENTER": 254.2491,
    "MEAN_ANOMALY": 144.661,
    "EPHEMERIS_TYPE": 0,
    "CLASSIFICATION_TYPE": "U",
    "NORAD_CAT_ID": 7648,
    "ELEMENT_SET_NO": 999,
    "REV_AT_EPOCH": 12941,
    "BSTAR": 0,
    "MEAN_MOTION_DOT": -2.78e-6,
    "MEAN_MOTION_DDOT": 0
},{
    "OBJECT_NAME": "MOLNIYA 1-29",
    "OBJECT_ID": "1975-036A",
    "EPOCH": "2024-09-24T04:14:36.789216",
    "MEAN_MOTION": 2.00582109,
    "ECCENTRICITY": 0.6721966,
    "INCLINATION": 63.5092,
    "RA_OF_ASC_NODE": 129.4405,
    "ARG_OF_PERICENTER": 283.1837,
    "MEAN_ANOMALY": 14.6589,
    "EPHEMERIS_TYPE": 0,
    "CLASSIFICATION_TYPE": "U",
    "NORAD_CAT_ID": 7780,
    "ELEMENT_SET_NO": 999,
    "REV_AT_EPOCH": 36229,
    "BSTAR": -0.061399,
    "MEAN_MOTION_DOT": 2.5e-6,
    "MEAN_MOTION_DDOT": 0
},{
    "OBJECT_NAME": "ANIK A3 (TELESAT 3)",
    "OBJECT_ID": "1975-038A",
    "EPOCH": "2024-09-25T09:55:14.858688",
    "MEAN_MOTION": 1.00061108,
    "ECCENTRICITY": 0.000261,
    "INCLINATION": 9.0665,
    "RA_OF_ASC_NODE": 307.5745,
    "ARG_OF_PERICENTER": 209.8733,
    "MEAN_ANOMALY": 132.3148,
    "EPHEMERIS_TYPE": 0,
    "CLASSIFICATION_TYPE": "U",
    "NORAD_CAT_ID": 7790,
    "ELEMENT_SET_NO": 999,
    "REV_AT_EPOCH": 12365,
    "BSTAR": 0,
    "MEAN_MOTION_DOT": -3.48e-6,
    "MEAN_MOTION_DDOT": 0
},{
    "OBJECT_NAME": "SL-6 R/B(2)",
    "OBJECT_ID": "1975-036D",
    "EPOCH": "2024-09-23T22:41:53.266560",
    "MEAN_MOTION": 1.96849071,
    "ECCENTRICITY": 0.6872888,
    "INCLINATION": 63.7594,
    "RA_OF_ASC_NODE": 204.311,
    "ARG_OF_PERICENTER": 288.3383,
    "MEAN_ANOMALY": 12.1988,
    "EPHEMERIS_TYPE": 0,
    "CLASSIFICATION_TYPE": "U",
    "NORAD_CAT_ID": 7800,
    "ELEMENT_SET_NO": 999,
    "REV_AT_EPOCH": 35476,
    "BSTAR": 0,
    "MEAN_MOTION_DOT": 1.017e-5,
    "MEAN_MOTION_DDOT": 0
},{
    "OBJECT_NAME": "ATLAS CENTAUR R/B",
    "OBJECT_ID": "1975-042B",
    "EPOCH": "2024-09-25T11:47:59.974368",
    "MEAN_MOTION": 2.21090697,
    "ECCENTRICITY": 0.7221806,
    "INCLINATION": 25.3908,
    "RA_OF_ASC_NODE": 103.914,
    "ARG_OF_PERICENTER": 299.0909,
    "MEAN_ANOMALY": 7.9948,
    "EPHEMERIS_TYPE": 0,
    "CLASSIFICATION_TYPE": "U",
    "NORAD_CAT_ID": 7902,
    "ELEMENT_SET_NO": 999,
    "REV_AT_EPOCH": 26707,
    "BSTAR": 0.0011441,
    "MEAN_MOTION_DOT": 5.0e-7,
    "MEAN_MOTION_DDOT": 0
},{
    "OBJECT_NAME": "ATLAS AGENA R/B",
    "OBJECT_ID": "1975-055B",
    "EPOCH": "2024-09-24T09:00:57.060288",
    "MEAN_MOTION": 1.0209137,
    "ECCENTRICITY": 0.1196037,
    "INCLINATION": 10.9129,
    "RA_OF_ASC_NODE": 248.7728,
    "ARG_OF_PERICENTER": 114.8451,
    "MEAN_ANOMALY": 257.9726,
    "EPHEMERIS_TYPE": 0,
    "CLASSIFICATION_TYPE": "U",
    "NORAD_CAT_ID": 7964,
    "ELEMENT_SET_NO": 999,
    "REV_AT_EPOCH": 2025,
    "BSTAR": 0,
    "MEAN_MOTION_DOT": -2.68e-6,
    "MEAN_MOTION_DDOT": 0
},{
    "OBJECT_NAME": "SYMPHONIE 2",
    "OBJECT_ID": "1975-077A",
    "EPOCH": "2024-09-25T13:01:15.182976",
    "MEAN_MOTION": 0.99958165,
    "ECCENTRICITY": 0.0002714,
    "INCLINATION": 5.6636,
    "RA_OF_ASC_NODE": 282.7916,
    "ARG_OF_PERICENTER": 329.9284,
    "MEAN_ANOMALY": 13.9364,
    "EPHEMERIS_TYPE": 0,
    "CLASSIFICATION_TYPE": "U",
    "NORAD_CAT_ID": 8132,
    "ELEMENT_SET_NO": 999,
    "REV_AT_EPOCH": 13615,
    "BSTAR": 0,
    "MEAN_MOTION_DOT": 2.9e-7,
    "MEAN_MOTION_DDOT": 0
},{
    "OBJECT_NAME": "MOLNIYA 2-14",
    "OBJECT_ID": "1975-081A",
    "EPOCH": "2024-09-25T12:26:28.086432",
    "MEAN_MOTION": 2.02094504,
    "ECCENTRICITY": 0.6724549,
    "INCLINATION": 63.7517,
    "RA_OF_ASC_NODE": 101.8975,
    "ARG_OF_PERICENTER": 288.1318,
    "MEAN_ANOMALY": 13.1773,
    "EPHEMERIS_TYPE": 0,
    "CLASSIFICATION_TYPE": "U",
    "NORAD_CAT_ID": 8195,
    "ELEMENT_SET_NO": 999,
    "REV_AT_EPOCH": 35968,
    "BSTAR": 0,
    "MEAN_MOTION_DOT": -1.052e-5,
    "MEAN_MOTION_DDOT": 0
},{
    "OBJECT_NAME": "INTELSAT 4A-F1",
    "OBJECT_ID": "1975-091A",
    "EPOCH": "2024-09-25T19:42:06.236064",
    "MEAN_MOTION": 0.99929699,
    "ECCENTRICITY": 0.0007097,
    "INCLINATION": 9.2153,
    "RA_OF_ASC_NODE": 308.9699,
    "ARG_OF_PERICENTER": 228.7392,
    "MEAN_ANOMALY": 150.8656,
    "EPHEMERIS_TYPE": 0,
    "CLASSIFICATION_TYPE": "U",
    "NORAD_CAT_ID": 8330,
    "ELEMENT_SET_NO": 999,
    "REV_AT_EPOCH": 11516,
    "BSTAR": 0,
    "MEAN_MOTION_DOT": 8.9e-7,
    "MEAN_MOTION_DDOT": 0
},{
    "OBJECT_NAME": "ATLAS CENTAUR R/B",
    "OBJECT_ID": "1975-091B",
    "EPOCH": "2024-09-24T23:59:05.769312",
    "MEAN_MOTION": 2.22150688,
    "ECCENTRICITY": 0.7215588,
    "INCLINATION": 22.2935,
    "RA_OF_ASC_NODE": 26.3841,
    "ARG_OF_PERICENTER": 131.3506,
    "MEAN_ANOMALY": 317.9449,
    "EPHEMERIS_TYPE": 0,
    "CLASSIFICATION_TYPE": "U",
    "NORAD_CAT_ID": 8331,
    "ELEMENT_SET_NO": 999,
    "REV_AT_EPOCH": 39478,
    "BSTAR": 0.0028784,
    "MEAN_MOTION_DOT": 5.1e-7,
    "MEAN_MOTION_DDOT": 0
},{
    "OBJECT_NAME": "COSMOS 775",
    "OBJECT_ID": "1975-097A",
    "EPOCH": "2024-09-25T18:08:23.895168",
    "MEAN_MOTION": 1.00349715,
    "ECCENTRICITY": 0.0011525,
    "INCLINATION": 3.9937,
    "RA_OF_ASC_NODE": 273.2439,
    "ARG_OF_PERICENTER": 176.63,
    "MEAN_ANOMALY": 248.7665,
    "EPHEMERIS_TYPE": 0,
    "CLASSIFICATION_TYPE": "U",
    "NORAD_CAT_ID": 8357,
    "ELEMENT_SET_NO": 999,
    "REV_AT_EPOCH": 12543,
    "BSTAR": 0,
    "MEAN_MOTION_DOT": 3.0e-8,
    "MEAN_MOTION_DDOT": 0
},{
    "OBJECT_NAME": "GOES 1 (SMS-C)",
    "OBJECT_ID": "1975-100A",
    "EPOCH": "2024-09-25T12:12:14.171040",
    "MEAN_MOTION": 1.00313618,
    "ECCENTRICITY": 0.0004161,
    "INCLINATION": 6.217,
    "RA_OF_ASC_NODE": 285.2796,
    "ARG_OF_PERICENTER": 297.9754,
    "MEAN_ANOMALY": 228.8736,
    "EPHEMERIS_TYPE": 0,
    "CLASSIFICATION_TYPE": "U",
    "NORAD_CAT_ID": 8366,
    "ELEMENT_SET_NO": 999,
    "REV_AT_EPOCH": 17875,
    "BSTAR": 0,
    "MEAN_MOTION_DOT": -1.73e-6,
    "MEAN_MOTION_DDOT": 0
},{
    "OBJECT_NAME": "SATCOM 1",
    "OBJECT_ID": "1975-117A",
    "EPOCH": "2024-09-25T12:52:16.885056",
    "MEAN_MOTION": 0.99599221,
    "ECCENTRICITY": 0.0017297,
    "INCLINATION": 9.3373,
    "RA_OF_ASC_NODE": 309.2509,
    "ARG_OF_PERICENTER": 253.2999,
    "MEAN_ANOMALY": 230.2737,
    "EPHEMERIS_TYPE": 0,
    "CLASSIFICATION_TYPE": "U",
    "NORAD_CAT_ID": 8476,
    "ELEMENT_SET_NO": 999,
    "REV_AT_EPOCH": 4009,
    "BSTAR": 0,
    "MEAN_MOTION_DOT": 6.5e-7,
    "MEAN_MOTION_DDOT": 0
},{
    "OBJECT_NAME": "OPS 3165 (DSP 5)",
    "OBJECT_ID": "1975-118A",
    "EPOCH": "2024-09-25T07:27:57.951360",
    "MEAN_MOTION": 1.00460238,
    "ECCENTRICITY": 0.0032165,
    "INCLINATION": 3.9201,
    "RA_OF_ASC_NODE": 271.6126,
    "ARG_OF_PERICENTER": 1.4074,
    "MEAN_ANOMALY": 185.1079,
    "EPHEMERIS_TYPE": 0,
    "CLASSIFICATION_TYPE": "U",
    "NORAD_CAT_ID": 8482,
    "ELEMENT_SET_NO": 999,
    "REV_AT_EPOCH": 2012,
    "BSTAR": 0,
    "MEAN_MOTION_DOT": -1.29e-6,
    "MEAN_MOTION_DDOT": 0
}]